ONEWEB-0668             
1 56711U 23068B   24350.37858742 -.00000004  00000+0 -43116-4 0  9991
2 56711  87.9067 338.1044 0001985 105.7857 254.3493 13.16596844 80261
ONEWEB-0676             
1 56712U 23068C   24350.35879629  .00000053  00000+0  10512-3 0  9992
2 56712  87.9079 338.1276 0002061  73.6854 286.4503 13.16594716 80183
ONEWEB-0677             
1 56713U 23068D   24350.32877379  .00000031  00000+0  45494-4 0  9994
2 56713  87.9246  23.6537 0002166  93.5204 266.6177 13.20774463 78056
ONEWEB-0678             
1 56714U 23068E   24350.02608379  .00000065  00000+0  13880-3 0  9994
2 56714  87.9071   8.5034 0001506  84.3644 275.7658 13.15549558 77783
ONEWEB-0679             
1 56715U 23068F   24349.41598120  .00000129  00000+0  30471-3 0  9994
2 56715  87.9073 338.3134 0002431  92.7263 267.4147 13.16594260 80088
ONEWEB-0680             
1 56716U 23068G   24349.99550721  .00000004  00000+0 -21823-4 0  9998
2 56716  87.9271 353.4193 0002230 108.7269 251.4107 13.21828410 79241
ONEWEB-0681             
1 56717U 23068H   24349.47591443  .00000108  00000+0  23017-3 0  9998
2 56717  87.9290 353.5119 0002724  77.2249 282.9189 13.21825428 79164
ONEWEB-0682             
1 56718U 23068J   24349.82405093  .00000184  00000+0  45598-3 0  9995
2 56718  87.9069   8.5800 0002179 105.2355 254.9016 13.15550290 77922
